NAVSTAR 77 (USA 289)    
1 43873U 18109A   24012.76482682  .00000019  00000+0  00000+0 0  9994
2 43873  55.2390 127.2109 0028460 192.1395 333.7007  2.00572603 37292
